[{"OBJECT_NAME":"HAWK-11C","OBJECT_ID":"2024-247E","EPOCH":"2026-03-09T12:17:35.407968","MEAN_MOTION":15.2884802,"ECCENTRICITY":0.00059001,"INCLINATION":45.0045,"RA_OF_ASC_NODE":114.8762,"ARG_OF_PERICENTER":329.704,"MEAN_ANOMALY":30.3502,"EPHEMERIS_TYPE":0,"CLASSIFICATION_TYPE":"U","NORAD_CAT_ID":62381,"ELEMENT_SET_NO":999,"REV_AT_EPOCH":6774,"BSTAR":0.00033290115,"MEAN_MOTION_DOT":9.223e-5,"MEAN_MOTION_DDOT":0},{"OBJECT_NAME":"STARLINK-32797","OBJECT_ID":"2025-019Q","EPOCH":"2026-03-09T10:34:46.441056","MEAN_MOTION":15.27586348,"ECCENTRICITY":0.00016497,"INCLINATION":43.0038,"RA_OF_ASC_NODE":90.3174,"ARG_OF_PERICENTER":276.4887,"MEAN_ANOMALY":83.5777,"EPHEMERIS_TYPE":0,"CLASSIFICATION_TYPE":"U","NORAD_CAT_ID":62843,"ELEMENT_SET_NO":999,"REV_AT_EPOCH":6221,"BSTAR":0.00083782548,"MEAN_MOTION_DOT":0.00022869,"MEAN_MOTION_DDOT":0}]
